STARLINK-37114          
1 68561U 26070V   26115.52675865  .00206412  00000+0  10214-2 0  9994
2 68561  53.1573 149.4884 0000981  80.9144 279.1990 15.80938270  3669
STARLINK-37233          
1 68562U 26070W   26115.39882064  .00208621  00000+0  10317-2 0  9999
2 68562  53.1573 150.1123 0001253  71.2033 288.9125 15.80945217  3643
STARLINK-36238          
1 68563U 26070X   26115.58922493  .00418488  00000+0  20092-2 0  9997
2 68563  53.1578 149.1704 0001055 121.1174 238.9953 15.81018181  3672
STARLINK-37008          
1 68564U 26070Y   26115.58772933  .00204291  00000+0  10097-2 0  9999
2 68564  53.1571 149.1630 0002300  24.7533 335.3600 15.80970711  3671
STARLINK-37161          
1 68565U 26070Z   26115.90307828  .00280169  00000+0  13726-2 0  9993
2 68565  53.1574 147.5735 0001541  69.9505 290.1684 15.80949384  3727
STARLINK-37212          
1 68566U 26070AA  26115.58622372  .00352773  00000+0  17066-2 0  9994
2 68566  53.1577 149.1463 0000785  85.0498 275.0615 15.81027099  3677
STARLINK-37261          
1 68567U 26070AB  26115.90157395  .00475879  00000+0  22619-2 0  9992
2 68567  53.1571 147.5610 0002019 120.9296 239.1925 15.81086908  3720
STARLINK-37283          
1 68568U 26070AC  26115.55783766  .00575823  00000+0  26689-2 0  9992
2 68568  53.1575 149.6999 0002312 183.5490 176.5517 15.81373640  3661
STARLINK-37256          
1 68569U 26070AD  26115.93790843  .00246370  00000+0  12120-2 0  9996
2 68569  53.1576 147.8031 0000836 107.8586 252.2528 15.80953616  3721
STARLINK-37228          
1 68570U 26070AE  26115.55708896  .00275908  00000+0  13502-2 0  9997
2 68570  53.1575 149.6945 0001032  71.7730 288.3405 15.80984904  3666
MERIDIAN-M 21L          
1 68571U 26071A   26115.37654476 -.00000067  00000+0  00000+0 0  9992
2 68571  62.7870 235.8371 7209010 285.0296  11.0051  2.00619164   455
KUIPER-00131            
1 68573U 26072A   26116.91667824 -.01975059  00000+0 -95608-1 0  9991
2 68573  51.8786  65.3585 0006163 178.8140 240.8712 15.21523149  4419
KUIPER-00189            
1 68574U 26072B   26116.91667824 -.00884943  00000+0 -61572-1 0  9995
2 68574  51.8970  66.4243 0001175 114.0054 119.0918 15.07835795  3996
KUIPER-00192            
1 68575U 26072C   26114.38622263 -.00250072  00000+0 -69664-2 0  9994
2 68575  51.8749  77.0892 0005040 167.7782 192.3328 15.37211130  3103
KUIPER-00193            
1 68576U 26072D   26114.51457956  .00020308  00000+0  54724-3 0  9992
2 68576  51.8751  76.4484 0003632 148.5584 211.5621 15.37798746  3124
